[{"OBJECT_NAME":"STARLINK-34899","OBJECT_ID":"2025-189A","EPOCH":"2026-03-09T15:58:05.454624","MEAN_MOTION":15.30206823,"ECCENTRICITY":9.405e-5,"INCLINATION":53.1572,"RA_OF_ASC_NODE":206.7988,"ARG_OF_PERICENTER":92.7,"MEAN_ANOMALY":267.4109,"EPHEMERIS_TYPE":0,"CLASSIFICATION_TYPE":"U","NORAD_CAT_ID":65323,"ELEMENT_SET_NO":999,"REV_AT_EPOCH":3110,"BSTAR":0.00073385366,"MEAN_MOTION_DOT":0.00021443,"MEAN_MOTION_DDOT":0},{"OBJECT_NAME":"CZ-2F R\/B","OBJECT_ID":"2026-024B","EPOCH":"2026-03-09T21:33:36.475776","MEAN_MOTION":15.34345765,"ECCENTRICITY":0.01743731,"INCLINATION":49.9895,"RA_OF_ASC_NODE":13.5528,"ARG_OF_PERICENTER":275.7155,"MEAN_ANOMALY":82.3946,"EPHEMERIS_TYPE":0,"CLASSIFICATION_TYPE":"U","NORAD_CAT_ID":67690,"ELEMENT_SET_NO":999,"REV_AT_EPOCH":472,"BSTAR":0.00037009281,"MEAN_MOTION_DOT":0.00020274,"MEAN_MOTION_DDOT":0}]
